STARS-AO
1 43679U 18084J   25194.91273288  .00004072  00000-0  24437-3 0  9997
2 43679  98.0745  23.7882 0001521 204.8584 155.2572 15.11549900366270
KAIDUN-1
1 41915U 17002C   25195.21752707  .00048369  00000-0  48827-3 0  9995
2 41915  97.1510 224.5144 0002579 187.0509 173.0715 15.65214499471394
CAS-4B (ZHUHAI-1 02)
1 42759U 17034B   25195.17665274  .00065132  00000-0  57427-3 0  9997
2 42759  43.0054 115.0285 0020509 177.8254 182.2704 15.67557982448024
CAS-4A (ZHUHAI-1 01)
1 42761U 17034D   25195.17854882  .00070066  00000-0  57709-3 0  9990
2 42761  43.0091 111.7511 0021711 182.5630 177.5128 15.69150723448054
EAGLESAT-1
1 43018U 17073F   25194.66902148  .00061055  00000-0  98664-3 0  9994
2 43018  97.5342  89.7783 0076948 331.2479  28.4539 15.49274245415771
LUOJIA-1 01
1 43485U 18048B   25195.16522989  .00001381  00000-0  16673-3 0  9998
2 43485  97.8424 273.6482 0010249 144.8789 215.3104 14.85329079383984
DIWATA-2B (PO-101)
1 43678U 18084H   25195.18031588  .00002172  00000-0  18703-3 0  9999
2 43678  98.1060  12.6283 0008930 158.0463 202.1143 14.98457043365566
ESHAIL-2
1 43700U 18090A   25195.13602726  .00000152  00000-0  00000+0 0  9998
2 43700   0.0242  58.9021 0002583  95.5415 212.5588  1.00269825 24534
K2SAT
1 43761U 18099D   25194.86013140  .00001627  00000-0  12055-3 0  9994
2 43761  97.4680 242.5867 0013665  65.6433 294.6218 15.04405076361205
AISTECHSAT-2
1 43768U 18099L   25195.10567894  .00003606  00000-0  22149-3 0  9993
2 43768  97.4798 245.6219 0005950  42.4461 317.7228 15.10689804361151
SNUSAT-2
1 43782U 18099AA  25195.15390276  .00005160  00000-0  27919-3 0  9999
2 43782  97.4571 249.3323 0012725  41.5134 318.7062 15.15016584361733
ITASAT-1
1 43786U 18099AE  25194.86787773  .00004265  00000-0  24265-3 0  9998
2 43786  97.4542 248.4597 0015965  89.3492 270.9569 15.13274936361640
IRVINE02
1 43789U 18099AH  25194.43689473  .00027513  00000-0  70009-3 0  9990
2 43789  97.4635 262.9895 0008239  29.1699 331.0006 15.39527795362216
EAGLET-1
1 43790U 18099AJ  25194.89559183  .00003497  00000-0  22298-3 0  9998
2 43790  97.4739 248.3283 0013477  75.0063 285.2657 15.09284204361243
ESEO
1 43792U 18099AL  25194.69569414  .00000772  00000-0  62058-4 0  9998
2 43792  97.4430 240.9388 0013632  49.0346 311.2056 15.02702048360948
CSIM-FD
1 43793U 18099AM  25194.47176438  .00107595  00000-0  47461-3 0  9996
2 43793  97.4764 275.2073 0001644 155.9217 204.2130 15.84208343362995
HIBER-2
1 43774U 18099S   25194.77081150  .00028514  00000-0  70898-3 0  9997
2 43774  97.4865 264.6199 0004688  27.9238 332.2259 15.40250176362446
MINXSS-2
1 43758U 18099A   25195.14548289  .00011585  00000-0  44427-3 0  9991
2 43758  97.4997 261.3104 0012056  41.9115 318.3044 15.26592159362241
FOX-1CLIFF (AO-95)
1 43770U 18099N   25194.60813502  .00006911  00000-0  34528-3 0  9996
2 43770  97.4892 252.3247 0012224  95.5065 264.7563 15.17720478361711
MOVE-II
1 43780U 18099Y   25194.49659552  .08906563  25462-5  14467-2 0  9990
2 43780  97.4554 273.5220 0016796 270.3011  89.6359 16.33143321363191
CORVUS-BC4
1 43767U 18099K   25194.90723183  .00002629  00000-0  17182-3 0  9999
2 43767  97.4562 242.6687 0010726  87.9015 272.3442 15.08615361361339
CZ-4B R/B
1 43656U 18081B   25194.95332669  .00000071  00000-0  38127-4 0  9999
2 43656  99.3920  80.6855 0205519 160.5062 200.4126 14.31657895350903
COSMOS 2504 [i]
1 40555U 15020D   25195.22218891  .00000288  00000-0  97193-4 0  9993
2 40555  82.5183 132.4626 0610246 112.7060 253.9764 13.61051515504214
MERIDIAN-4
1 37398U 11018A   25193.85586189  .00000014  00000-0 -20638-2 0  9998
2 37398  62.1002 129.0069 7375540 261.2472  17.0279  2.00526940103957
MERIDIAN-6
1 38995U 12063A   25194.63467353 -.00000112  00000-0  00000+0 0  9998
2 38995  64.7413  42.1018 7251491 231.2734  38.7886  2.00728096 92755
MERIDIAN-7
1 40296U 14069A   25194.20672631  .00000213  00000-0  00000-0 0  9995
2 40296  63.4819 250.1492 6812251 272.3667  17.7176  2.00622996 78432
METOP-C
1 43689U 18087A   25195.13477651  .00000070  00000-0  51819-4 0  9995
2 43689  98.7139 255.0306 0002312  83.3704 276.7736 14.21495593346805
FENGYUN-3B
1 37214U 10059A   25195.25903075  .00000037  00000-0  42705-4 0  9997
2 37214  99.0110 233.9731 0023086  65.3730   5.9589 14.14737871759684
FENGYUN-3C
1 39260U 13052A   25195.21045248  .00000047  00000-0  45072-4 0  9992
2 39260  98.4559 180.4304 0013468 277.4763  82.4881 14.15635029610813
EWS-G1 (GOES-13)
1 29155U 06018A   25194.14374639  .00000068  00000-0  00000-0 0  9999
2 29155   3.6472  80.6031 0059630 267.3080  56.2216  0.98784643 39893
FENGYUN-2H
1 43491U 18050A   25194.93247293 -.00000121  00000-0  00000-0 0  9990
2 43491   2.1566  83.1562 0001902 113.2321 150.4630  1.00274845 26045
FENGYUN-2G
1 40367U 14090A   25194.72235851 -.00000293  00000-0  00000-0 0  9993
2 40367   4.7789  76.9586 0004118 140.3852  73.8406  1.00261769 38602
INMARSAT 4-F1
1 28628U 05009A   25194.88069140  .00000039  00000-0  00000-0 0  9999
2 28628   4.7250  42.3439 0002032  85.1536 299.6481  1.00271471 74289
INMARSAT 4-F2
1 28899U 05044A   25194.94521299 -.00000255  00000-0  00000-0 0  9994
2 28899   4.6539  43.5349 0002109  81.3106 290.9753  1.00270775 72131
INMARSAT 4-F3
1 33278U 08039A   25195.18288649 -.00000133  00000-0  00000+0 0  9998
2 33278   4.0100  30.0452 0002478  88.7700 141.3048  1.00272141 61876
INMARSAT 4A-F4 (ALPHASAT)
1 39215U 13038A   25195.06447035  .00000142  00000-0  00000+0 0  9992
2 39215   2.9440   4.1345 0002643 135.7692 200.3678  1.00273330 43884
ASTROCAST
1 43798U 18099AS  25194.94416193  .00012052  00000-0  42367-3 0  9991
2 43798  97.4821 262.6661 0007042   5.1515 354.9796 15.29495879362422
JY1SAT (JO-97)
1 43803U 18099AX  25194.92243253  .00008519  00000-0  38183-3 0  9995
2 43803  97.4637 253.7027 0007860  37.4306 322.7476 15.21452554361999
SUOMI-100
1 43804U 18099AY  25195.12495955  .00006908  00000-0  33348-3 0  9995
2 43804  97.4701 253.0994 0012756  35.1927 325.0147 15.18913431361940
GEO-KOMPSAT-2A
1 43823U 18100A   25195.02961455 -.00000336  00000-0  00000+0 0  9996
2 43823   0.0362 141.3656 0002208 324.1427 325.5478  1.00271105 24270
UWE-4
1 43880U 18111E   25195.22144651  .00010706  00000-0  40941-3 0  9997
2 43880  97.5875 108.6328 0013873  89.8913 270.3914 15.26688343356910
D-STAR ONE SPARROW
1 43881U 18111F   25194.70917949  .00017630  00000-0  56758-3 0  9994
2 43881  97.6083 112.8909 0008986 112.4106 247.8088 15.32241666359016
METEOR M2-2
1 44387U 19038A   25195.13287083  .00000038  00000-0  36322-4 0  9992
2 44387  98.8762 173.1572 0000153 321.1530  38.9637 14.24215890313175
MOMENTUS-X1
1 44408U 19038Y   25194.49883467  .00014354  00000-0  30788-3 0  9997
2 44408  97.7168 209.4363 0013110 161.0597 199.1141 15.44757939333944
MERIDIAN-8
1 44453U 19046A   25193.27308939  .00000170  00000-0  00000-0 0  9999
2 44453  62.8497  93.1504 6942563 273.9278  16.0322  2.00611356 43525
TAURUS-1
1 44530U 19059C   25195.19390405  .00003749  00000-0  69114-3 0  9990
2 44530  98.6108 336.2432 0007928 287.2984  72.7351 14.66153395309010
GAOFEN 12-01
1 44819U 19082A   25195.15073069  .00000285  00000-0  43955-4 0  9994
2 44819  97.8132 205.3757 0003573  48.6957 311.4563 14.80427240304073
DUCHIFAT-3
1 44854U 19089C   25195.19912666  .00037580  00000-0  67139-3 0  9996
2 44854  36.9417 134.6499 0006856 251.0256 108.9759 15.49067231308311
CAS-6 (TO-108)
1 44881U 19093C   25195.17931052  .00000644  00000-0  80295-4 0  9999
2 44881  97.7916 270.1051 0015146 115.8013 244.4767 14.85656356301218
ELEKTRO-L3
1 44903U 19095A   25194.94766839 -.00000089  00000-0  00000-0 0  9995
2 44903   0.0657 278.5538 0000747 249.8388 180.7729  1.00272774 20318
DOSAAF-85 (RS-44)
1 44909U 19096E   25195.10976464  .00000017  00000-0  27719-4 0  9998
2 44909  82.5196 204.3364 0216743 214.5918 144.0923 12.79742029259152
MERIDIAN-9
1 45254U 20015A   25194.49588190 -.00000122  00000-0  00000-0 0  9999
2 45254  65.3082 355.8744 6937083 283.3690  13.1466  2.00603711 39495
ION-MK01
1 46274U 20061C   25194.91553403  .00021524  00000-0  35021-3 0  9991
2 46274  97.2408 262.8993 0003406 104.4277 255.7354 15.52682540270303
UPMSAT-2
1 46276U 20061E   25194.76631441  .00073207  00000-0  53283-3 0  9990
2 46276  97.2414 270.4034 0001879 148.5694 211.5682 15.73111308270831
DEKART
1 46493U 20068H   25195.18623800  .00007062  00000-0  26333-3 0  9997
2 46493  97.8593 178.0645 0012390  45.3875 314.8371 15.27701896264002
NORBY
1 46494U 20068J   25194.90508897  .00010693  00000-0  34447-3 0  9994
2 46494  97.8568 180.6130 0010810  38.3262 321.8744 15.32341925264146
SALSAT (TUBSAT 22)
1 46495U 20068K   25194.91359274  .00005317  00000-0  22816-3 0  9993
2 46495  97.8622 174.5405 0012541  50.0553 310.1782 15.23122105263758
NETSAT-4
1 46504U 20068U   25195.18835409  .00008382  00000-0  28164-3 0  9990
2 46504  97.8471 174.9917 0009109  84.8776 275.3504 15.31076862263842
NETSAT-3
1 46505U 20068V   25194.88767589  .00009713  00000-0  34128-3 0  9996
2 46505  97.8470 173.5329 0008952  94.9025 265.3236 15.29573820263752
NETSAT-1
1 46506U 20068W   25194.91824086  .00006808  00000-0  27870-3 0  9995
2 46506  97.8499 171.1383 0008445 107.0150 253.2012 15.24637388263595
NETSAT-2
1 46507U 20068X   25195.18716373  .00009712  00000-0  32931-3 0  9996
2 46507  97.8471 174.4566 0007562 105.9269 254.2804 15.30746103263786
ARKTIKA-M1
1 47719U 21016A   25188.56783479 -.00000061  00000-0  00000+0 0  9998
2 47719  63.1494 105.0602 7121258 268.6885  16.4397  2.00621558 31889
SIMBA
1 47941U 21022K   25195.19800096  .00021252  00000-0  42060-3 0  9994
2 47941  97.4185 100.5512 0009814 171.1820 188.9604 15.47062078238545
UNISAT-7
1 47945U 21022P   25194.45759256  .00007770  00000-0  27085-3 0  9996
2 47945  97.4178  93.0252 0010696 195.2946 164.7973 15.29867840237892
CSS (TIANHE-1)
1 48274U 21035A   25195.10431369  .00009235  00000-0  12972-3 0  9998
2 48274  41.4634 217.3654 0008704 276.2365  83.7481 15.56733901240352
